STARLINK-30842          
1 58357U 23177G   26196.43703046  .00015125  00000+0  53490-3 0  9996
2 58357  43.0125 335.5198 0005536 298.2306  61.7987 15.28959984147929
STARLINK-30858          
1 58358U 23177H   26196.73477083 -.00000593  00000+0 -12010-4 0  9998
2 58358  43.0026 347.1839 0001704 206.4928 153.5837 15.27574344147820
STARLINK-30878          
1 58359U 23177J   26196.49072324  .00001244  00000+0  54733-4 0  9991
2 58359  43.0032 352.1920 0001277 256.0106 104.0604 15.27566437147736
STARLINK-30897          
1 58360U 23177K   26196.44326636  .00002111  00000+0  86246-4 0  9994
2 58360  43.0001   3.7545 0001740 178.7875 181.2981 15.27573994147599
STARLINK-30885          
1 58361U 23177L   26196.81430062  .00001369  00000+0  59292-4 0  9990
2 58361  43.0033 346.9230 0001370 229.7655 130.3077 15.27563908147832
STARLINK-30890          
1 58362U 23177M   26196.81814482  .00000458  00000+0  26186-4 0  9997
2 58362  43.0037 346.9515 0001869 263.8139  96.2500 15.27577074147775
STARLINK-30909          
1 58363U 23177N   26196.69122966  .00001246  00000+0  54817-4 0  9991
2 58363  43.0066 347.7232 0002622 288.2239  71.8327 15.27574022147803
STARLINK-30904          
1 58364U 23177P   26196.85347768  .00012590  00000+0  76998-3 0  9996
2 58364  43.0007   7.6482 0010662 269.6011  90.3613 15.10125658147580
STARLINK-30918          
1 58365U 23177Q   26196.70150937  .00001038  00000+0  47239-4 0  9993
2 58365  43.0021 347.7945 0001616 268.2981  91.7686 15.27569870147793
STARLINK-30892          
1 58366U 23177R   26196.76046670  .00000808  00000+0  38888-4 0  9992
2 58366  43.0020 347.3758 0001280 297.6403  62.4319 15.27584020147829
STARLINK-30891          
1 58367U 23177S   26196.77460912 -.00000296  00000+0 -12336-5 0  9997
2 58367  43.0021 347.4801 0001198 265.5612  94.5102 15.27571813147759
STARLINK-30889          
1 58368U 23177T   26196.50920334  .00001031  00000+0  47005-4 0  9994
2 58368  43.0039 348.9296 0001336 264.5083  95.5616 15.27577252147774
STARLINK-30870          
1 58369U 23177U   26196.77846054  .00001189  00000+0  52730-4 0  9995
2 58369  43.0020 347.5045 0001112 270.4910  89.5814 15.27568367147814
STARLINK-30888          
1 58370U 23177V   26196.73605366  .00001291  00000+0  56445-4 0  9993
2 58370  43.0058 347.1824 0001539 259.8924 100.1754 15.27572720147829
STARLINK-30859          
1 58371U 23177W   26196.78488126  .00000868  00000+0  41068-4 0  9996
2 58371  43.0036 347.5230 0001216 273.6427  86.4285 15.27575970147820
STARLINK-30884          
1 58372U 23177X   26196.72077938  .00001274  00000+0  55807-4 0  9994
2 58372  43.0014 347.9282 0000870 262.7307  97.3446 15.27579485147802
STARLINK-30852          
1 58373U 23177Y   26196.48093063  .00000996  00000+0  45718-4 0  9995
2 58373  43.0040 348.6867 0001423 272.4496  87.6193 15.27576005147773
STARLINK-30911          
1 58374U 23178A   26196.94048430  .00001301  00000+0  49663-4 0  9990
2 58374  53.1589 122.7747 0001405  92.7706 267.3457 15.34389822149554
STARLINK-30894          
1 58375U 23178B   26196.19672157  .00001951  00000+0  68877-4 0  9996
2 58375  53.1598 126.6720 0001318  93.9093 266.2060 15.34389724149373
STARLINK-30910          
1 58376U 23178C   26196.95311062  .00001240  00000+0  47848-4 0  9992
2 58376  53.1585 122.8626 0001371  87.1301 272.9858 15.34394585149560
STARLINK-30914          
1 58377U 23178D   26196.94469144  .00001168  00000+0  45718-4 0  9990
2 58377  53.1593 122.7937 0001452  93.7227 266.3942 15.34390859149565
STARLINK-30920          
1 58378U 23178E   26196.91668981 -.00011696  00000+0 -33535-3 0  9990
2 58378  53.1593 112.7462 0001482  87.9933 257.2327 15.34418971  5765
STARLINK-30882          
1 58379U 23178F   26196.97205199 -.00000956  00000+0 -17177-4 0  9997
2 58379  53.1599 122.9783 0001328 101.1107 259.0045 15.34385475149568
STARLINK-30915          
1 58380U 23178G   26196.78380210  .00001028  00000+0  41585-4 0  9995
2 58380  53.1612  35.2569 0001511  91.8447 268.2728 15.34389823150743
STARLINK-30923          
1 58381U 23178H   26196.93821592  .00010580  00000+0  31539-3 0  9996
2 58381  53.1605 123.4427 0003239  67.5509 292.5837 15.35236954149484
STARLINK-30927          
1 58382U 23178J   26196.19882337  .00001900  00000+0  67386-4 0  9995
2 58382  53.1596 126.6810 0001386  98.2251 261.8909 15.34389217149424
STARLINK-30921          
1 58383U 23178K   26196.18410068  .00001941  00000+0  68594-4 0  9990
2 58383  53.1580 126.5910 0001455 100.5751 259.5416 15.34392788149421
STARLINK-30825          
1 58384U 23178L   26196.94679479  .00000859  00000+0  36566-4 0  9999
2 58384  53.1590 122.7909 0001359  84.4512 275.6645 15.34389176149562
STARLINK-30930          
1 58385U 23178M   26196.79758754 -.00000051  00000+0  96320-5 0  9997
2 58385  53.1584 123.3090 0000944  99.3077 260.8032 15.34386523149417
STARLINK-30929          
1 58386U 23178N   26196.93423388 -.00000995  00000+0 -18331-4 0  9999
2 58386  53.1588 123.2412 0001268  96.0795 264.0352 15.34397692149533
STARLINK-30898          
1 58387U 23178P   26196.79555760  .00001276  00000+0  48927-4 0  9999
2 58387  53.1586 123.8747 0001404 115.6902 244.4246 15.34387300149538
STARLINK-30913          
1 58388U 23178Q   26196.97626039 -.00000133  00000+0  71958-5 0  9991
2 58388  53.1596 123.0001 0001537  99.6145 260.5031 15.34383675149567
STARLINK-30938          
1 58389U 23178R   26196.97251410 -.00000963  00000+0 -17377-4 0  9995
2 58389  53.1597 124.3923 0001159 137.6863 222.4229 15.34396398149546
STARLINK-30868          
1 58390U 23178S   26196.18830820  .00001573  00000+0  57710-4 0  9999
2 58390  53.1576 126.6165 0001288  99.1560 260.9588 15.34386932149444
STARLINK-30916          
1 58391U 23178T   26196.20301368 -.00002442  00000+0 -61138-4 0  9990
2 58391  53.1590 126.6050 0001446 101.3817 258.7348 15.34411448149441
STARLINK-30939          
1 58393U 23178V   26196.24290872 -.00002265  00000+0 -55886-4 0  9999
2 58393  53.1582 126.2438 0001258  91.3130 268.8016 15.34420698149325
STARLINK-30887          
1 58394U 23178W   26196.79976101  .00001362  00000+0  51446-4 0  9999
2 58394  53.1590 123.8571 0001338  89.8397 270.2759 15.34388222149510
STARLINK-30934          
1 58395U 23178X   26196.97416143  .00000552  00000+0  27496-4 0  9993
2 58395  53.1597 123.0616 0001213 110.3875 249.7258 15.34385706149499
MALLIGYONG-1            
1 58400U 23179A   26196.95194846  .00001512  00000+0  67621-4 0  9993
2 58400  97.2980  77.6849 0006668 292.4430  67.6101 15.22795361147133
STARLINK-30964          
1 58402U 23180A   26195.97967453 -.00000898  00000+0 -23089-4 0  9998
2 58402  43.0051  53.6594 0002312 262.2161  97.8428 15.27572253147092
STARLINK-30844          
1 58403U 23180B   26196.00409794  .00000083  00000+0  12539-4 0  9995
2 58403  43.0060  53.8449 0001356 268.4729  91.5968 15.27573802146976
STARLINK-30876          
1 58404U 23180C   26196.00023698  .00000595  00000+0  31148-4 0  9996
2 58404  43.0043  53.8165 0001450 261.0659  99.0029 15.27578085147092
STARLINK-30952          
1 58405U 23180D   26195.98995822 -.00000441  00000+0 -64845-5 0  9993
2 58405  43.0053  53.7400 0001814 271.2631  88.8013 15.27579355146989
STARLINK-30925          
1 58406U 23180E   26195.99253387  .00001205  00000+0  53330-4 0  9991
2 58406  43.0060  53.7577 0001844 273.6810  86.3831 15.27580225146979
STARLINK-30954          
1 58407U 23180F   26196.03862638  .00000125  00000+0  14094-4 0  9997
2 58407  43.0082  53.2395 0002240 267.8535  92.2060 15.27580704147105
STARLINK-30906          
1 58408U 23180G   26196.01899254 -.00000035  00000+0  82521-5 0  9992
2 58408  43.0036  57.1947 0001709 251.3117 108.7550 15.27574036146943
STARLINK-30940          
1 58409U 23180H   26196.27223882  .00001408  00000+0  60697-4 0  9992
2 58409  43.0017 266.9503 0001590 278.7683  81.2989 15.27572144148840
STARLINK-30933          
1 58410U 23180J   26196.41443029  .00000137  00000+0  14510-4 0  9998
2 58410  42.9980 265.4225 0001168 273.7705  86.3013 15.27572714148875
STARLINK-30919          
1 58411U 23180K   26196.01806932  .00000456  00000+0  26075-4 0  9994
2 58411  42.9996  53.0126 0000901 282.8550  77.2201 15.27577971147009
STARLINK-30924          
1 58412U 23180L   26196.91668981  .00146098  00000+0  20172-2 0  9997
2 58412  42.9921 245.6465 0018386  53.6992  13.7888 15.55751365  5879
STARLINK-30931          
1 58413U 23180M   26196.88870453 -.00000417  00000+0 -56263-5 0  9992
2 58413  43.0045  37.2940 0001452 269.2372  90.8313 15.27572367147367
STARLINK-30922          
1 58414U 23180N   26195.99638176 -.00000295  00000+0 -11929-5 0  9992
2 58414  43.0046  53.7728 0001420 266.5788  93.4902 15.27573556147096
STARLINK-30949          
1 58415U 23180P   26196.96689015 -.00000375  00000+0 -40931-5 0  9993
2 58415  43.0049  48.1396 0001642 264.0960  95.9704 15.27577826147248
STARLINK-30967          
1 58416U 23180Q   26195.98224192  .00001042  00000+0  47398-4 0  9999
2 58416  43.0058  53.6662 0001584 264.3129  95.7542 15.27566615147096
STARLINK-30955          
1 58417U 23180R   26196.01550687  .00000464  00000+0  26398-4 0  9990
2 58417  43.0013  53.0542 0001254 266.1914  93.8794 15.27577737147102
STARLINK-30895          
1 58418U 23180S   26195.97581740  .00000579  00000+0  30556-4 0  9997
2 58418  43.0030  53.6335 0001477 272.6623  87.4060 15.27579744146984
STARLINK-30917          
1 58419U 23180T   26196.36897429  .00002278  00000+0  92281-4 0  9997
2 58419  43.0005 302.6930 0002240 271.2038  88.8557 15.27578398148420
STARLINK-30899          
1 58420U 23180U   26196.02321467 -.00000272  00000+0 -30988-6 0  9998
2 58420  43.0144  53.1187 0003024 259.6060 100.4451 15.27575547146980
STARLINK-30902          
1 58421U 23180V   26195.97839294 -.00000108  00000+0  56066-5 0  9995
2 58421  43.0024  53.6472 0000961 271.1562  88.9180 15.27574823146988
